
2015-03-25 21:15:00	KSUU 252115Z AUTO 08005KT 10SM CLR 17/M01 A3033 RMK AO2
2015-03-25 21:13:00	KSUU 252113Z AUTO 06005KT 10SM BKN014 OVC024 20/17 A3009 RMK AO2
2015-03-25 21:12:00	KSUU 252112Z 14006KT 10SM TS BKN035 BKN120 BKN250 24/16 A2975 RMK AO2 OCNL LTGICCC VC SW-NW TS VC SW-NW MOV NE T02390161
2015-03-25 21:11:00	KSUU 252111Z AUTO 13007KT 10SM SCT023 22/17 A2986 RMK AO2 T02170167
2015-03-25 21:10:00	KSUU 252110Z AUTO 33009KT 8SM SCT016 07/03 A3006 RMK AO2 T00720033
2015-03-25 21:10:00	KSUU 252110Z AUTO 26016KT 4SM -SN BR OVC007 01/M01 A2959 RMK AO2 P0000 T00111011
2015-03-25 21:10:00	KSUU 252110Z AUTO 29018G26KT 1 3/4SM -SN BR SCT009 BKN014 OVC029 01/M01 A2970 RMK AO2 PK WND 29026/2102 P0000 T00061011
2015-03-25 21:10:00	KSUU 252110Z 03009KT 9SM -RA VCTS SCT040 BKN100 10/07 A3000 RMK AO2A LTG DSNT W
2015-03-25 21:09:00	KSUU 252109Z AUTO 20011KT 9SM OVC006 06/06 A3027 RMK AO2 RAE2059DZB2059E09
2015-03-25 21:09:00	KSUU 252109Z 01029G38KT 10SM BKN018 BKN033 BKN080 07/02 A3008 RMK AO2 PK WND 01038/2055 PRESRR T00670017
2015-03-25 21:09:00	KSUU 252109Z 02009KT 7SM FEW011 SCT021 OVC041 16/13 A3015 RMK AO2 T01610128
2015-03-25 21:08:00	KSUU 252108Z AUTO 16011KT 10SM FEW020 OVC032 26/19 A2988 RMK AO2 T02560194
2015-03-25 21:08:00	KSUU 252108Z AUTO 17008KT 10SM BKN026 22/19 A2986 RMK AO2 BKN V OVC $
2015-03-25 21:08:00	KSUU 252108Z AUTO 03020G27KT 10SM -RA BKN019 BKN037 OVC065 09/06 A3006 RMK AO2
2015-03-25 21:08:00	KSUU 252108Z AUTO 18015KT 1 3/4SM RA BR OVC013 13/12 A3024 RMK AO2 P0004 T01280117
2015-03-25 21:07:00	KSUU 252107Z 29014KT 10SM FEW200 21/12 A3020 RMK AO2 WSHFT 2047
2015-03-25 21:07:00	KSUU 252107Z 23014KT 10SM BKN018 08/03 A2996 RMK AO2 T00830028
2015-03-25 21:07:00	KSUU 252107Z 21013G23KT 3SM -RA BR BKN008 OVC013 07/05 A2987 RMK AO2 P0000 T00670050
2015-03-25 21:06:00	KSUU 252106Z AUTO 35015KT 10SM -RA FEW003 SCT020 SCT120 SCT170 BKN200 00/M03 A3019 RMK AO2 RAE2059RAB06
2015-03-25 21:06:00	KSUU 252106Z AUTO 33005KT 10SM FEW024 SCT029 OVC038 22/17 A3010 RMK AO2 T02170167
2015-03-25 21:06:00	KSUU 252106Z 02020G29KT 5SM -TSRA FEW048 BKN075 OVC090 09/05 A2997 RMK AO2 PK WND 36031/2055 LTG DSNT NE AND SW RAB2055GSB2056E00 FRQ LTGICCG TS NE MOV ENE P0001 T00940050 $
2015-03-25 21:06:00	KSUU 252106Z 05016KT 9SM -RA FEW050 BKN080 OVC095 14/09 A2988 RMK AO2 LTG DSNT SE-W P0002 T01440089
2015-05-02 12:50:00	KEFD 021250Z 00000KT 10SM BKN075 19/15 A3010
2015-05-02 12:50:00	KGTR 021250Z 00000KT 10SM FEW024 12/09 A3014
2015-05-02 12:50:00	KHOB 021250Z 15003KT 10SM FEW034 10/03 A3008
2015-05-02 12:50:00	KISM 021250Z 01004KT 10SM FEW040 21/13 A3005
2015-05-02 12:50:00	KLAL 021250Z 04008KT 12SM FEW020 20/12 A3005
2015-05-02 12:50:00	KLBE 021250Z 25006KT 15SM FEW010 12/06 A3011
2015-05-02 12:49:00	KRYY 021249Z 00000KT 10SM FEW050 13/08 A3016
2015-05-02 12:48:00	KAEG 021248Z VRB05KT 10SM SCT120 12/02 A3010
2015-05-02 12:47:00	KBVI 021247Z 31003KT 10SM FEW053 13/05 A3010
2015-05-02 12:47:00	KHUM 021247Z 10003KT 7SM SCT070 19/17 A3008 RMK ATIS Z VA/RY18.....MS
2015-05-02 12:47:00	KPVU 021247Z 10005KT 15SM SCT080 SCT120 13/03 A2996
2015-05-02 12:47:00	KSUA 021247Z 03007KT 7SM FEW030 23/12 A3001
2015-05-02 12:47:00	KSUN 021247Z 32008KT 10SM FEW080 03/M06 A2999
2015-05-02 12:45:00	KATW 021245Z 21007KT 10SM BKN065 14/03 A3003
2015-05-02 12:45:00	KBJC 021245Z 00000KT 100SM SCT150 14/02 A3001
2015-05-02 12:45:00	KCWA 021245Z 20011KT 10SM SCT155 13/04 A3001
2015-05-02 12:45:00	KMHR 021245Z 13005KT 10SM SCT156 10/09 A2982
2015-05-02 12:45:00	KMTN 021245Z 00000KT 10SM SCT157 13/09 A3004
2015-05-02 12:45:00	KMYR 021245Z 33008KT 10SM SCT158 14/09 A3006
2015-05-02 12:45:00	KSAW 021245Z 00000KT 10SM SCT110 11/04 A2998